{
    "CCSDS_OMM_VERS": "3.0",
    "COMMENT": "GENERATED VIA SPACE-TRACK.ORG API",
    "CREATION_DATE": "2025-11-24T07:26:19",
    "ORIGINATOR": "18 SPCS",
    "OBJECT_NAME": "BEIDOU 3M6",
    "OBJECT_ID": "2018-018B",
    "CENTER_NAME": "EARTH",
    "REF_FRAME": "TEME",
    "TIME_SYSTEM": "UTC",
    "MEAN_ELEMENT_THEORY": "SGP4",
    "EPOCH": "2025-11-24T03:37:19.317792",
    "MEAN_MOTION": "1.86231290",
    "ECCENTRICITY": "0.00058780",
    "INCLINATION": "56.4692",
    "RA_OF_ASC_NODE": "69.9242",
    "ARG_OF_PERICENTER": "317.8375",
    "MEAN_ANOMALY": "42.1228",
    "EPHEMERIS_TYPE": "0",
    "CLASSIFICATION_TYPE": "U",
    "NORAD_CAT_ID": "43208",
    "ELEMENT_SET_NO": "999",
    "REV_AT_EPOCH": "5292",
    "BSTAR": "0.00000000000000",
    "MEAN_MOTION_DOT": "-0.00000021",
    "MEAN_MOTION_DDOT": "0.0000000000000",
    "SEMIMAJOR_AXIS": "27906.160",
    "PERIOD": "773.232",
    "APOAPSIS": "21544.428",
    "PERIAPSIS": "21511.621",
    "OBJECT_TYPE": "PAYLOAD",
    "RCS_SIZE": "LARGE",
    "COUNTRY_CODE": "PRC",
    "LAUNCH_DATE": "2018-02-12",
    "SITE": "XSC",
    "DECAY_DATE": null,
    "FILE": "4896991",
    "GP_ID": "303367227",
    "TLE_LINE0": "0 BEIDOU 3M6",
    "TLE_LINE1": "1 43208U 18018B   25328.15091803 -.00000021  00000-0  00000+0 0  9995",
    "TLE_LINE2": "2 43208  56.4692  69.9242 0005878 317.8375  42.1228  1.86231290 52924"
}